{"fetched_at":"2026-07-22T07:09:22.096Z","source":"https://celestrak.org/NORAD/elements/gp.php?GROUP=oneweb&FORMAT=JSON","constellation":"oneweb","records":[{"OBJECT_NAME":"ONEWEB-0564","OBJECT_ID":"2023-029F","EPOCH":"2026-07-21T05:25:20.860032","CLASSIFICATION_TYPE":"U","MEAN_MOTION":13.20772286,"ECCENTRICITY":0.00016713,"INCLINATION":87.9169,"RA_OF_ASC_NODE":267.6679,"ARG_OF_PERICENTER":93.2749,"MEAN_ANOMALY":266.8576,"EPHEMERIS_TYPE":0,"NORAD_CAT_ID":55801,"ELEMENT_SET_NO":999,"REV_AT_EPOCH":16564,"BSTAR":0.000065265772,"MEAN_MOTION_DOT":4e-7,"MEAN_MOTION_DDOT":0},{"OBJECT_NAME":"ONEWEB-0638","OBJECT_ID":"2023-029G","EPOCH":"2026-07-21T11:51:06.829056","CLASSIFICATION_TYPE":"U","MEAN_MOTION":13.14504879,"ECCENTRICITY":0.00015349,"INCLINATION":87.895,"RA_OF_ASC_NODE":282.9134,"ARG_OF_PERICENTER":108.0734,"MEAN_ANOMALY":252.0563,"EPHEMERIS_TYPE":0,"NORAD_CAT_ID":55802,"ELEMENT_SET_NO":999,"REV_AT_EPOCH":16390,"BSTAR":-0.00033506597,"MEAN_MOTION_DOT":-0.00000111,"MEAN_MOTION_DDOT":0},{"OBJECT_NAME":"ONEWEB-0639","OBJECT_ID":"2023-029H","EPOCH":"2026-07-21T14:30:16.880256","CLASSIFICATION_TYPE":"U","MEAN_MOTION":13.19723707,"ECCENTRICITY":0.00028089,"INCLINATION":87.9183,"RA_OF_ASC_NODE":298.1228,"ARG_OF_PERICENTER":114.4707,"MEAN_ANOMALY":245.6719,"EPHEMERIS_TYPE":0,"NORAD_CAT_ID":55803,"ELEMENT_SET_NO":999,"REV_AT_EPOCH":16344,"BSTAR":0.00017802525,"MEAN_MOTION_DOT":8.4e-7,"MEAN_MOTION_DDOT":0},{"OBJECT_NAME":"ONEWEB-0640","OBJECT_ID":"2023-029J","EPOCH":"2026-07-21T12:04:49.966176","CLASSIFICATION_TYPE":"U","MEAN_MOTION":13.14503073,"ECCENTRICITY":0.00017745,"INCLINATION":87.8951,"RA_OF_ASC_NODE":282.9023,"ARG_OF_PERICENTER":119.3218,"MEAN_ANOMALY":240.8089,"EPHEMERIS_TYPE":0,"NORAD_CAT_ID":55804,"ELEMENT_SET_NO":999,"REV_AT_EPOCH":16392,"BSTAR":0.0001539417,"MEAN_MOTION_DOT":7e-7,"MEAN_MOTION_DDOT":0},{"OBJECT_NAME":"ONEWEB-0641","OBJECT_ID":"2023-029K","EPOCH":"2026-07-21T12:34:18.090336","CLASSIFICATION_TYPE":"U","MEAN_MOTION":13.19727738,"ECCENTRICITY":0.00020625,"INCLINATION":87.9191,"RA_OF_ASC_NODE":298.1307,"ARG_OF_PERICENTER":104.583,"MEAN_ANOMALY":255.5532,"EPHEMERIS_TYPE":0,"NORAD_CAT_ID":55805,"ELEMENT_SET_NO":999,"REV_AT_EPOCH":16344,"BSTAR":0.0001575205,"MEAN_MOTION_DOT":7.6e-7,"MEAN_MOTION_DDOT":0},{"OBJECT_NAME":"ONEWEB-0642","OBJECT_ID":"2023-029L","EPOCH":"2026-07-21T06:59:56.683392","CLASSIFICATION_TYPE":"U","MEAN_MOTION":13.19726711,"ECCENTRICITY":0.00028057,"INCLINATION":87.9183,"RA_OF_ASC_NODE":298.1864,"ARG_OF_PERICENTER":108.6975,"MEAN_ANOMALY":251.4462,"EPHEMERIS_TYPE":0,"NORAD_CAT_ID":55806,"ELEMENT_SET_NO":999,"REV_AT_EPOCH":16340,"BSTAR":0.00018578959,"MEAN_MOTION_DOT":8.7e-7,"MEAN_MOTION_DDOT":0},{"OBJECT_NAME":"ONEWEB-0643","OBJECT_ID":"2023-029M","EPOCH":"2026-07-21T11:21:26.985600","CLASSIFICATION_TYPE":"U","MEAN_MOTION":13.14502784,"ECCENTRICITY":0.00027198,"INCLINATION":87.8953,"RA_OF_ASC_NODE":282.8957,"ARG_OF_PERICENTER":102.1079,"MEAN_ANOMALY":258.0355,"EPHEMERIS_TYPE":0,"NORAD_CAT_ID":55807,"ELEMENT_SET_NO":999,"REV_AT_EPOCH":16389,"BSTAR":-0.00031692201,"MEAN_MOTION_DOT":-0.00000105,"MEAN_MOTION_DDOT":0},{"OBJECT_NAME":"ONEWEB-0644","OBJECT_ID":"2023-029N","EPOCH":"2026-07-21T12:20:39.321600","CLASSIFICATION_TYPE":"U","MEAN_MOTION":13.1972603,"ECCENTRICITY":0.00023771,"INCLINATION":87.9183,"RA_OF_ASC_NODE":298.143,"ARG_OF_PERICENTER":103.7618,"MEAN_ANOMALY":256.378,"EPHEMERIS_TYPE":0,"NORAD_CAT_ID":55808,"ELEMENT_SET_NO":999,"REV_AT_EPOCH":16343,"BSTAR":0.00014275825,"MEAN_MOTION_DOT":7e-7,"MEAN_MOTION_DDOT":0},{"OBJECT_NAME":"ONEWEB-0645","OBJECT_ID":"2023-029P","EPOCH":"2026-07-21T07:24:57.941280","CLASSIFICATION_TYPE":"U","MEAN_MOTION":13.19726486,"ECCENTRICITY":0.00021611,"INCLINATION":87.9182,"RA_OF_ASC_NODE":298.1806,"ARG_OF_PERICENTER":113.2298,"MEAN_ANOMALY":246.9062,"EPHEMERIS_TYPE":0,"NORAD_CAT_ID":55809,"ELEMENT_SET_NO":999,"REV_AT_EPOCH":16340,"BSTAR":0.00020527701,"MEAN_MOTION_DOT":9.5e-7,"MEAN_MOTION_DDOT":0},{"OBJECT_NAME":"ONEWEB-0646","OBJECT_ID":"2023-029Q","EPOCH":"2026-07-21T07:49:58.314432","CLASSIFICATION_TYPE":"U","MEAN_MOTION":13.19724625,"ECCENTRICITY":0.0002276,"INCLINATION":87.9183,"RA_OF_ASC_NODE":298.1773,"ARG_OF_PERICENTER":103.5221,"MEAN_ANOMALY":256.6166,"EPHEMERIS_TYPE":0,"NORAD_CAT_ID":55810,"ELEMENT_SET_NO":999,"REV_AT_EPOCH":16339,"BSTAR":-0.00022289531,"MEAN_MOTION_DOT":-7.6e-7,"MEAN_MOTION_DDOT":0},{"OBJECT_NAME":"ONEWEB-0648","OBJECT_ID":"2023-029R","EPOCH":"2026-07-21T06:56:33.030816","CLASSIFICATION_TYPE":"U","MEAN_MOTION":13.1450408,"ECCENTRICITY":0.00025995,"INCLINATION":87.8963,"RA_OF_ASC_NODE":282.9097,"ARG_OF_PERICENTER":120.2502,"MEAN_ANOMALY":239.8886,"EPHEMERIS_TYPE":0,"NORAD_CAT_ID":55811,"ELEMENT_SET_NO":999,"REV_AT_EPOCH":16387,"BSTAR":0.0006605815,"MEAN_MOTION_DOT":0.00000258,"MEAN_MOTION_DDOT":0},{"OBJECT_NAME":"ONEWEB-0649","OBJECT_ID":"2023-029S","EPOCH":"2026-07-21T12:04:42.810528","CLASSIFICATION_TYPE":"U","MEAN_MOTION":13.19724408,"ECCENTRICITY":0.00021479,"INCLINATION":87.9183,"RA_OF_ASC_NODE":298.1404,"ARG_OF_PERICENTER":107.1101,"MEAN_ANOMALY":253.0267,"EPHEMERIS_TYPE":0,"NORAD_CAT_ID":55812,"ELEMENT_SET_NO":999,"REV_AT_EPOCH":16345,"BSTAR":-0.000049044577,"MEAN_MOTION_DOT":-7e-8,"MEAN_MOTION_DDOT":0},{"OBJECT_NAME":"ONEWEB-0650","OBJECT_ID":"2023-029T","EPOCH":"2026-07-21T06:30:22.125024","CLASSIFICATION_TYPE":"U","MEAN_MOTION":13.19724748,"ECCENTRICITY":0.00025849,"INCLINATION":87.9183,"RA_OF_ASC_NODE":298.1888,"ARG_OF_PERICENTER":107.9018,"MEAN_ANOMALY":252.2397,"EPHEMERIS_TYPE":0,"NORAD_CAT_ID":55813,"ELEMENT_SET_NO":999,"REV_AT_EPOCH":16339,"BSTAR":0.00013862462,"MEAN_MOTION_DOT":6.8e-7,"MEAN_MOTION_DDOT":0},{"OBJECT_NAME":"ONEWEB-0652","OBJECT_ID":"2023-029U","EPOCH":"2026-07-21T06:29:09.135168","CLASSIFICATION_TYPE":"U","MEAN_MOTION":13.14502498,"ECCENTRICITY":0.00019516,"INCLINATION":87.8959,"RA_OF_ASC_NODE":282.9198,"ARG_OF_PERICENTER":94.5083,"MEAN_ANOMALY":265.627,"EPHEMERIS_TYPE":0,"NORAD_CAT_ID":55814,"ELEMENT_SET_NO":999,"REV_AT_EPOCH":16384,"BSTAR":-0.000011982519,"MEAN_MOTION_DOT":8e-8,"MEAN_MOTION_DDOT":0},{"OBJECT_NAME":"ONEWEB-0653","OBJECT_ID":"2023-029V","EPOCH":"2026-07-21T11:35:08.474208","CLASSIFICATION_TYPE":"U","MEAN_MOTION":13.14502489,"ECCENTRICITY":0.00019642,"INCLINATION":87.8961,"RA_OF_ASC_NODE":282.8757,"ARG_OF_PERICENTER":99.6466,"MEAN_ANOMALY":260.4885,"EPHEMERIS_TYPE":0,"NORAD_CAT_ID":55815,"ELEMENT_SET_NO":999,"REV_AT_EPOCH":16390,"BSTAR":-0.0004896303,"MEAN_MOTION_DOT":-0.00000169,"MEAN_MOTION_DDOT":0},{"OBJECT_NAME":"ONEWEB-0654","OBJECT_ID":"2023-029W","EPOCH":"2026-07-21T11:28:17.362272","CLASSIFICATION_TYPE":"U","MEAN_MOTION":13.14501922,"ECCENTRICITY":0.00017347,"INCLINATION":87.8963,"RA_OF_ASC_NODE":282.8727,"ARG_OF_PERICENTER":92.4162,"MEAN_ANOMALY":267.7167,"EPHEMERIS_TYPE":0,"NORAD_CAT_ID":55816,"ELEMENT_SET_NO":999,"REV_AT_EPOCH":16392,"BSTAR":-0.00066282764,"MEAN_MOTION_DOT":-0.00000233,"MEAN_MOTION_DDOT":0}]}
