{"epoch":1784710044,"count":18256,"objects":[{"id":"55801","name":"ONEWEB-0564","type":"PAYLOAD","l1":"1 55801U 23029F   26202.22593588  .00000040  00000-0  65266-4 0  9992","l2":"2 55801  87.9169 267.6679 0001671  93.2749 266.8576 13.20772286165643"},{"id":"55802","name":"ONEWEB-0638","type":"PAYLOAD","l1":"1 55802U 23029G   26202.49382904 -.00000111  00000-0 -33507-3 0  9993","l2":"2 55802  87.8950 282.9134 0001535 108.0734 252.0563 13.14504879163909"},{"id":"55803","name":"ONEWEB-0639","type":"PAYLOAD","l1":"1 55803U 23029H   26202.60436204  .00000084  00000-0  17803-3 0  9998","l2":"2 55803  87.9183 298.1228 0002809 114.4707 245.6719 13.19723707163446"},{"id":"55804","name":"ONEWEB-0640","type":"PAYLOAD","l1":"1 55804U 23029J   26202.50335609  .00000070  00000-0  15394-3 0  9993","l2":"2 55804  87.8951 282.9023 0001774 119.3218 240.8089 13.14503073163921"},{"id":"55805","name":"ONEWEB-0641","type":"PAYLOAD","l1":"1 55805U 23029K   26202.52382049  .00000076  00000-0  15752-3 0  9990","l2":"2 55805  87.9191 298.1307 0002063 104.5830 255.5532 13.19727738163445"},{"id":"55806","name":"ONEWEB-0642","type":"PAYLOAD","l1":"1 55806U 23029L   26202.29162828  .00000087  00000-0  18579-3 0  9998","l2":"2 55806  87.9183 298.1864 0002806 108.6975 251.4462 13.19726711163408"},{"id":"55807","name":"ONEWEB-0643","type":"PAYLOAD","l1":"1 55807U 23029M   26202.47322900 -.00000105  00000-0 -31692-3 0  9992","l2":"2 55807  87.8953 282.8957 0002720 102.1079 258.0355 13.14502784163899"},{"id":"55808","name":"ONEWEB-0644","type":"PAYLOAD","l1":"1 55808U 23029N   26202.51434400  .00000070  00000-0  14276-3 0  9995","l2":"2 55808  87.9183 298.1430 0002377 103.7618 256.3780 13.19726030163436"},{"id":"55809","name":"ONEWEB-0645","type":"PAYLOAD","l1":"1 55809U 23029P   26202.30900395  .00000095  00000-0  20528-3 0  9998","l2":"2 55809  87.9182 298.1806 0002161 113.2298 246.9062 13.19726486163404"},{"id":"55810","name":"ONEWEB-0646","type":"PAYLOAD","l1":"1 55810U 23029Q   26202.32636938 -.00000076  00000-0 -22290-3 0  9990","l2":"2 55810  87.9183 298.1773 0002276 103.5221 256.6166 13.19724625163399"},{"id":"55811","name":"ONEWEB-0648","type":"PAYLOAD","l1":"1 55811U 23029R   26202.28927119  .00000258  00000-0  66058-3 0  9990","l2":"2 55811  87.8963 282.9097 0002599 120.2502 239.8886 13.14504080163872"},{"id":"55812","name":"ONEWEB-0649","type":"PAYLOAD","l1":"1 55812U 23029S   26202.50327327 -.00000007  00000-0 -49045-4 0  9993","l2":"2 55812  87.9183 298.1404 0002148 107.1101 253.0267 13.19724408163456"},{"id":"55813","name":"ONEWEB-0650","type":"PAYLOAD","l1":"1 55813U 23029T   26202.27108941  .00000068  00000-0  13862-3 0  9999","l2":"2 55813  87.9183 298.1888 0002585 107.9018 252.2397 13.19724748163398"},{"id":"55814","name":"ONEWEB-0652","type":"PAYLOAD","l1":"1 55814U 23029U   26202.27024462  .00000008  00000-0 -11983-4 0  9993","l2":"2 55814  87.8959 282.9198 0001952  94.5083 265.6270 13.14502498163843"},{"id":"55815","name":"ONEWEB-0653","type":"PAYLOAD","l1":"1 55815U 23029V   26202.48273697 -.00000169  00000-0 -48963-3 0  9999","l2":"2 55815  87.8961 282.8757 0001964  99.6466 260.4885 13.14502489163903"},{"id":"55816","name":"ONEWEB-0654","type":"PAYLOAD","l1":"1 55816U 23029W   26202.47797873 -.00000233  00000-0 -66283-3 0  9993","l2":"2 55816  87.8963 282.8727 0001735  92.4162 267.7167 13.14501922163929"}]}